[{"OBJECT_NAME":"SL-16 R/B","OBJECT_ID":"1993-059B","EPOCH":"2026-03-17T12:33:21.700512","MEAN_MOTION":14.17232591,"ECCENTRICITY":0.00180745,"INCLINATION":70.9931,"RA_OF_ASC_NODE":354.6083,"ARG_OF_PERICENTER":205.0597,"MEAN_ANOMALY":154.9651,"EPHEMERIS_TYPE":0,"CLASSIFICATION_TYPE":"U","NORAD_CAT_ID":22803,"ELEMENT_SET_NO":999,"REV_AT_EPOCH":68064,"BSTAR":0.00013202627,"MEAN_MOTION_DOT":2.19e-6,"MEAN_MOTION_DDOT":0},{"OBJECT_NAME":"ARIANE 40 R/B","OBJECT_ID":"1993-061H","EPOCH":"2026-03-17T14:08:45.007584","MEAN_MOTION":14.32865115,"ECCENTRICITY":0.00095768,"INCLINATION":98.4901,"RA_OF_ASC_NODE":145.3206,"ARG_OF_PERICENTER":258.9482,"MEAN_ANOMALY":101.0626,"EPHEMERIS_TYPE":0,"CLASSIFICATION_TYPE":"U","NORAD_CAT_ID":22830,"ELEMENT_SET_NO":999,"REV_AT_EPOCH":69523,"BSTAR":8.5623995e-5,"MEAN_MOTION_DOT":1.91e-6,"MEAN_MOTION_DDOT":0},{"OBJECT_NAME":"COSMOS 2278","OBJECT_ID":"1994-023A","EPOCH":"2026-03-17T14:08:50.533728","MEAN_MOTION":14.14379207,"ECCENTRICITY":0.00085976,"INCLINATION":71.0545,"RA_OF_ASC_NODE":158.5718,"ARG_OF_PERICENTER":359.2074,"MEAN_ANOMALY":0.9033,"EPHEMERIS_TYPE":0,"CLASSIFICATION_TYPE":"U","NORAD_CAT_ID":23087,"ELEMENT_SET_NO":999,"REV_AT_EPOCH":64592,"BSTAR":-4.7654564e-5,"MEAN_MOTION_DOT":-1.38e-6,"MEAN_MOTION_DDOT":0},{"OBJECT_NAME":"SL-16 R/B","OBJECT_ID":"1994-023B","EPOCH":"2026-03-17T15:10:39.680544","MEAN_MOTION":14.15009992,"ECCENTRICITY":0.0005546,"INCLINATION":70.9991,"RA_OF_ASC_NODE":54.2049,"ARG_OF_PERICENTER":277.8681,"MEAN_ANOMALY":82.1812,"EPHEMERIS_TYPE":0,"CLASSIFICATION_TYPE":"U","NORAD_CAT_ID":23088,"ELEMENT_SET_NO":999,"REV_AT_EPOCH":64721,"BSTAR":-1.2077187e-5,"MEAN_MOTION_DOT":-7.1e-7,"MEAN_MOTION_DDOT":0},{"OBJECT_NAME":"SL-16 R/B","OBJECT_ID":"1994-074B","EPOCH":"2026-03-17T20:42:50.213952","MEAN_MOTION":14.79417336,"ECCENTRICITY":0.0006415,"INCLINATION":97.7097,"RA_OF_ASC_NODE":107.3496,"ARG_OF_PERICENTER":181.9557,"MEAN_ANOMALY":351.0502,"EPHEMERIS_TYPE":0,"CLASSIFICATION_TYPE":"U","NORAD_CAT_ID":23343,"ELEMENT_SET_NO":999,"REV_AT_EPOCH":68845,"BSTAR":6.2346e-5,"MEAN_MOTION_DOT":4.16e-6,"MEAN_MOTION_DDOT":0},{"OBJECT_NAME":"SL-16 R/B","OBJECT_ID":"1994-077B","EPOCH":"2026-03-17T11:16:14.272896","MEAN_MOTION":14.15564269,"ECCENTRICITY":0.00026425,"INCLINATION":70.9851,"RA_OF_ASC_NODE":336.1231,"ARG_OF_PERICENTER":202.4631,"MEAN_ANOMALY":157.6377,"EPHEMERIS_TYPE":0,"CLASSIFICATION_TYPE":"U","NORAD_CAT_ID":23405,"ELEMENT_SET_NO":999,"REV_AT_EPOCH":61733,"BSTAR":0.00018120305,"MEAN_MOTION_DOT":3.07e-6,"MEAN_MOTION_DDOT":0},{"OBJECT_NAME":"ARIANE 40+ R/B","OBJECT_ID":"1995-021B","EPOCH":"2026-03-17T14:52:42.510144","MEAN_MOTION":14.39778129,"ECCENTRICITY":0.00079007,"INCLINATION":98.4482,"RA_OF_ASC_NODE":147.9946,"ARG_OF_PERICENTER":115.723,"MEAN_ANOMALY":47.0988,"EPHEMERIS_TYPE":0,"CLASSIFICATION_TYPE":"U","NORAD_CAT_ID":23561,"ELEMENT_SET_NO":999,"REV_AT_EPOCH":62038,"BSTAR":9.5315606e-5,"MEAN_MOTION_DOT":2.55e-6,"MEAN_MOTION_DDOT":0},{"OBJECT_NAME":"SL-16 R/B","OBJECT_ID":"1995-058B","EPOCH":"2026-03-17T11:26:50.230464","MEAN_MOTION":14.15500016,"ECCENTRICITY":0.00104227,"INCLINATION":71.0223,"RA_OF_ASC_NODE":163.9069,"ARG_OF_PERICENTER":111.655,"MEAN_ANOMALY":248.5684,"EPHEMERIS_TYPE":0,"CLASSIFICATION_TYPE":"U","NORAD_CAT_ID":23705,"ELEMENT_SET_NO":999,"REV_AT_EPOCH":56895,"BSTAR":9.2441595e-5,"MEAN_MOTION_DOT":1.33e-6,"MEAN_MOTION_DDOT":0},{"OBJECT_NAME":"SL-16 R/B","OBJECT_ID":"1996-051B","EPOCH":"2026-03-17T11:03:14.351328","MEAN_MOTION":14.12417668,"ECCENTRICITY":0.00144253,"INCLINATION":70.76,"RA_OF_ASC_NODE":158.7921,"ARG_OF_PERICENTER":135.9266,"MEAN_ANOMALY":224.3007,"EPHEMERIS_TYPE":0,"CLASSIFICATION_TYPE":"U","NORAD_CAT_ID":24298,"ELEMENT_SET_NO":999,"REV_AT_EPOCH":52274,"BSTAR":6.7834013e-5,"MEAN_MOTION_DOT":7.6e-7,"MEAN_MOTION_DDOT":0},{"OBJECT_NAME":"ORBVIEW 2 (SEASTAR)","OBJECT_ID":"1997-037A","EPOCH":"2026-03-17T10:24:23.926464","MEAN_MOTION":14.35500521,"ECCENTRICITY":0.00028808,"INCLINATION":98.858,"RA_OF_ASC_NODE":240.951,"ARG_OF_PERICENTER":56.032,"MEAN_ANOMALY":304.1138,"EPHEMERIS_TYPE":0,"CLASSIFICATION_TYPE":"U","NORAD_CAT_ID":24883,"ELEMENT_SET_NO":999,"REV_AT_EPOCH":50958,"BSTAR":0.00010087448,"MEAN_MOTION_DOT":2.43e-6,"MEAN_MOTION_DDOT":0},{"OBJECT_NAME":"SL-16 R/B","OBJECT_ID":"1998-043G","EPOCH":"2026-03-17T20:53:34.524672","MEAN_MOTION":14.26051681,"ECCENTRICITY":0.0009788,"INCLINATION":98.8268,"RA_OF_ASC_NODE":30.2925,"ARG_OF_PERICENTER":357.301,"MEAN_ANOMALY":2.8115,"EPHEMERIS_TYPE":0,"CLASSIFICATION_TYPE":"U","NORAD_CAT_ID":25400,"ELEMENT_SET_NO":999,"REV_AT_EPOCH":44015,"BSTAR":3.98e-5,"MEAN_MOTION_DOT":5.0e-7,"MEAN_MOTION_DDOT":0},{"OBJECT_NAME":"SL-16 R/B","OBJECT_ID":"1998-045B","EPOCH":"2026-03-17T11:37:04.099008","MEAN_MOTION":14.16194301,"ECCENTRICITY":0.00072577,"INCLINATION":71.012,"RA_OF_ASC_NODE":165.1839,"ARG_OF_PERICENTER":355.8749,"MEAN_ANOMALY":4.2314,"EPHEMERIS_TYPE":0,"CLASSIFICATION_TYPE":"U","NORAD_CAT_ID":25407,"ELEMENT_SET_NO":999,"REV_AT_EPOCH":42820,"BSTAR":0.00012223625,"MEAN_MOTION_DOT":1.94e-6,"MEAN_MOTION_DDOT":0},{"OBJECT_NAME":"ISS (ZARYA)","OBJECT_ID":"1998-067A","EPOCH":"2026-03-17T20:07:47.769312","MEAN_MOTION":15.48349303,"ECCENTRICITY":0.0006232,"INCLINATION":51.6336,"RA_OF_ASC_NODE":32.0723,"ARG_OF_PERICENTER":202.9067,"MEAN_ANOMALY":157.1644,"EPHEMERIS_TYPE":0,"CLASSIFICATION_TYPE":"U","NORAD_CAT_ID":25544,"ELEMENT_SET_NO":999,"REV_AT_EPOCH":55759,"BSTAR":0.00018567,"MEAN_MOTION_DOT":9.567e-5,"MEAN_MOTION_DDOT":0},{"OBJECT_NAME":"CZ-4B R/B","OBJECT_ID":"1999-025C","EPOCH":"2026-03-17T20:54:15.653664","MEAN_MOTION":14.18266957,"ECCENTRICITY":0.0036342,"INCLINATION":98.6609,"RA_OF_ASC_NODE":120.9582,"ARG_OF_PERICENTER":322.7599,"MEAN_ANOMALY":210.4248,"EPHEMERIS_TYPE":0,"CLASSIFICATION_TYPE":"U","NORAD_CAT_ID":25732,"ELEMENT_SET_NO":999,"REV_AT_EPOCH":38932,"BSTAR":3.913e-5,"MEAN_MOTION_DOT":3.8e-7,"MEAN_MOTION_DDOT":0},{"OBJECT_NAME":"OKEAN-O","OBJECT_ID":"1999-039A","EPOCH":"2026-03-17T15:04:15.318048","MEAN_MOTION":14.80348502,"ECCENTRICITY":0.00010345,"INCLINATION":97.9425,"RA_OF_ASC_NODE":136.4381,"ARG_OF_PERICENTER":74.9224,"MEAN_ANOMALY":285.2102,"EPHEMERIS_TYPE":0,"CLASSIFICATION_TYPE":"U","NORAD_CAT_ID":25860,"ELEMENT_SET_NO":999,"REV_AT_EPOCH":43556,"BSTAR":8.9733212e-5,"MEAN_MOTION_DOT":6.32e-6,"MEAN_MOTION_DDOT":0},{"OBJECT_NAME":"SL-16 R/B","OBJECT_ID":"1999-039B","EPOCH":"2026-03-17T14:24:30.236544","MEAN_MOTION":14.81742528,"ECCENTRICITY":0.00137777,"INCLINATION":97.9948,"RA_OF_ASC_NODE":135.6846,"ARG_OF_PERICENTER":228.2252,"MEAN_ANOMALY":131.7784,"EPHEMERIS_TYPE":0,"CLASSIFICATION_TYPE":"U","NORAD_CAT_ID":25861,"ELEMENT_SET_NO":999,"REV_AT_EPOCH":43803,"BSTAR":7.2811796e-5,"MEAN_MOTION_DOT":5.21e-6,"MEAN_MOTION_DDOT":0},{"OBJECT_NAME":"DELTA 2 R/B","OBJECT_ID":"1999-041E","EPOCH":"2026-03-17T12:17:21.114816","MEAN_MOTION":14.11860091,"ECCENTRICITY":0.05025583,"INCLINATION":51.7612,"RA_OF_ASC_NODE":270.034,"ARG_OF_PERICENTER":11.5057,"MEAN_ANOMALY":349.6876,"EPHEMERIS_TYPE":0,"CLASSIFICATION_TYPE":"U","NORAD_CAT_ID":25876,"ELEMENT_SET_NO":999,"REV_AT_EPOCH":36413,"BSTAR":0.00016765064,"MEAN_MOTION_DOT":7.99e-6,"MEAN_MOTION_DDOT":0}]
