SL-16 R/B               
1 22803U 93059B   26076.52316783  .00000219  00000+0  13203-3 0  9990
2 22803  70.9931 354.6083 0018074 205.0597 154.9651 14.17232591680643
ARIANE 40 R/B           
1 22830U 93061H   26076.58940981  .00000191  00000+0  85624-4 0  9998
2 22830  98.4901 145.3206 0009576 258.9482 101.0626 14.32865115695231
COSMOS 2278             
1 23087U 94023A   26076.58947377 -.00000138  00000+0 -47655-4 0  9993
2 23087  71.0545 158.5718 0008597 359.2074   0.9033 14.14379207645927
SL-16 R/B               
1 23088U 94023B   26076.63240371 -.00000071  00000+0 -12077-4 0  9996
2 23088  70.9991  54.2049 0005546 277.8681  82.1812 14.15009992647213
SL-16 R/B               
1 23343U 94074B   26076.86308118  .00000416  00000+0  62346-4 0  9990
2 23343  97.7097 107.3496 0006415 181.9557 351.0502 14.79417336688450
SL-16 R/B               
1 23405U 94077B   26076.46960964  .00000307  00000+0  18120-3 0  9990
2 23405  70.9851 336.1231 0002642 202.4631 157.6377 14.15564269617336
ARIANE 40+ R/B          
1 23561U 95021B   26076.61993646  .00000255  00000+0  95316-4 0  9998
2 23561  98.4482 147.9946 0007900 115.7230  47.0988 14.39778129620385
SL-16 R/B               
1 23705U 95058B   26076.47697026  .00000133  00000+0  92442-4 0  9997
2 23705  71.0223 163.9069 0010422 111.6550 248.5684 14.15500016568959
SL-16 R/B               
1 24298U 96051B   26076.46058277  .00000076  00000+0  67834-4 0  9990
2 24298  70.7600 158.7921 0014425 135.9266 224.3007 14.12417668522746
ORBVIEW 2 (SEASTAR)     
1 24883U 97037A   26076.43361026  .00000243  00000+0  10087-3 0  9994
2 24883  98.8580 240.9510 0002880  56.0320 304.1138 14.35500521509583
SL-16 R/B               
1 25400U 98043G   26076.87053848  .00000050  00000+0  39800-4 0  9997
2 25400  98.8268  30.2925 0009788 357.3010   2.8115 14.26051681440151
SL-16 R/B               
1 25407U 98045B   26076.48407522  .00000194  00000+0  12224-3 0  9994
2 25407  71.0120 165.1839 0007257 355.8749   4.2314 14.16194301428206
ISS (ZARYA)             
1 25544U 98067A   26076.83874733  .00009567  00000+0  18567-3 0  9990
2 25544  51.6336  32.0723 0006232 202.9067 157.1644 15.48349303557591
CZ-4B R/B               
1 25732U 99025C   26076.87101451  .00000038  00000+0  39130-4 0  9992
2 25732  98.6609 120.9582 0036342 322.7599 210.4248 14.18266957389326
OKEAN-O                 
1 25860U 99039A   26076.62795507  .00000632  00000+0  89733-4 0  9997
2 25860  97.9425 136.4381 0001034  74.9224 285.2102 14.80348502435569
SL-16 R/B               
1 25861U 99039B   26076.60034996  .00000521  00000+0  72812-4 0  9991
2 25861  97.9948 135.6846 0013777 228.2252 131.7784 14.81742528438032
DELTA 2 R/B             
1 25876U 99041E   26076.51204994  .00000799  00000+0  16765-3 0  9998
2 25876  51.7612 270.0340 0502558  11.5057 349.6876 14.11860091364133
